[{"OBJECT_NAME":"STARLINK-6197","OBJECT_ID":"2023-078A","EPOCH":"2026-03-09T22:55:29.940960","MEAN_MOTION":15.17018833,"ECCENTRICITY":0.00072438,"INCLINATION":69.9932,"RA_OF_ASC_NODE":349.0269,"ARG_OF_PERICENTER":212.47,"MEAN_ANOMALY":147.6024,"EPHEMERIS_TYPE":0,"CLASSIFICATION_TYPE":"U","NORAD_CAT_ID":56767,"ELEMENT_SET_NO":999,"REV_AT_EPOCH":15259,"BSTAR":0.00062350917,"MEAN_MOTION_DOT":0.00012272,"MEAN_MOTION_DDOT":0},{"OBJECT_NAME":"YAOGAN-36 05C","OBJECT_ID":"2023-106E","EPOCH":"2026-03-09T23:02:42.692640","MEAN_MOTION":15.17284181,"ECCENTRICITY":0.00091151,"INCLINATION":34.9946,"RA_OF_ASC_NODE":339.3602,"ARG_OF_PERICENTER":188.1733,"MEAN_ANOMALY":171.8833,"EPHEMERIS_TYPE":0,"CLASSIFICATION_TYPE":"U","NORAD_CAT_ID":57456,"ELEMENT_SET_NO":999,"REV_AT_EPOCH":14578,"BSTAR":0.00035217341,"MEAN_MOTION_DOT":7.158e-5,"MEAN_MOTION_DDOT":0}]
